[{"OBJECT_NAME":"SHIYAN-6 01 (SY-6 01)","OBJECT_ID":"2018-094B","EPOCH":"2026-03-09T23:04:36.967872","MEAN_MOTION":15.28649156,"ECCENTRICITY":0.00144834,"INCLINATION":97.3669,"RA_OF_ASC_NODE":84.0964,"ARG_OF_PERICENTER":135.6758,"MEAN_ANOMALY":224.5644,"EPHEMERIS_TYPE":0,"CLASSIFICATION_TYPE":"U","NORAD_CAT_ID":43711,"ELEMENT_SET_NO":999,"REV_AT_EPOCH":40632,"BSTAR":0.00024768444,"MEAN_MOTION_DOT":6.847e-5,"MEAN_MOTION_DDOT":0},{"OBJECT_NAME":"STARLINK-30541","OBJECT_ID":"2023-158G","EPOCH":"2026-03-09T22:00:01.999584","MEAN_MOTION":15.275745,"ECCENTRICITY":0.00013477,"INCLINATION":43.0015,"RA_OF_ASC_NODE":25.554,"ARG_OF_PERICENTER":266.1987,"MEAN_ANOMALY":222.2777,"EPHEMERIS_TYPE":0,"CLASSIFICATION_TYPE":"U","NORAD_CAT_ID":58057,"ELEMENT_SET_NO":999,"REV_AT_EPOCH":568,"BSTAR":0.0014250917,"MEAN_MOTION_DOT":0.00039155,"MEAN_MOTION_DDOT":0}]
